{"type": "FeatureCollection", "features": [ {"type": "Feature", "properties": {"norad_id": 66620, "name": "STARLINK-35936", "group": "last-30-days", "lat": 50.21513487059944, "lon": -89.06373076840647, "alt_km": 411.07149482140903, "timestamp": "2025-12-19T10:49:59.922441+00:00", "meta": {"OBJECT_NAME": "STARLINK-35936", "OBJECT_ID": "2025-271D", "EPOCH": "2025-12-18T20:26:38.659776", "MEAN_MOTION": 15.49341209, "ECCENTRICITY": 0.0001202, "INCLINATION": 53.1598, "RA_OF_ASC_NODE": 158.0059, "ARG_OF_PERICENTER": 74.9181, "MEAN_ANOMALY": 285.1961, "EPHEMERIS_TYPE": 0, "CLASSIFICATION_TYPE": "U", "NORAD_CAT_ID": 66620, "ELEMENT_SET_NO": 999, "REV_AT_EPOCH": 515, "BSTAR": 0.00062165334, "MEAN_MOTION_DOT": 0.00034317, "MEAN_MOTION_DDOT": 0}, "tle": {"line1": "1 66620U 25271D   25352.85183634  .00034317  00000+0  62165-3 0  9992", "line2": "2 66620  53.1598 158.0059 0001202  74.9181 285.1961 15.49341209  5157"}}, "geometry": {"type": "Point", "coordinates": [-89.06373076840647, 50.21513487059944]}}, {"type": "Feature", "properties": {"norad_id": 66621, "name": "STARLINK-35847", "group": "last-30-days", "lat": 15.020513246753975, "lon": -36.584918364811735, "alt_km": 417.15238643812427, "timestamp": "2025-12-19T10:49:59.922451+00:00", "meta": {"OBJECT_NAME": "STARLINK-35847", "OBJECT_ID": "2025-271E", "EPOCH": "2025-12-18T21:45:21.671712", "MEAN_MOTION": 15.49313514, "ECCENTRICITY": 0.00010846, "INCLINATION": 53.159, "RA_OF_ASC_NODE": 157.6274, "ARG_OF_PERICENTER": 88.6607, "MEAN_ANOMALY": 271.4526, "EPHEMERIS_TYPE": 0, "CLASSIFICATION_TYPE": "U", "NORAD_CAT_ID": 66621, "ELEMENT_SET_NO": 999, "REV_AT_EPOCH": 516, "BSTAR": 0.00049904928, "MEAN_MOTION_DOT": 0.00027408, "MEAN_MOTION_DDOT": 0}, "tle": {"line1": "1 66621U 25271E   25352.90650083  .00027408  00000+0  49905-3 0  9996", "line2": "2 66621  53.1590 157.6274 0001084  88.6607 271.4526 15.49313514  5161"}}, "geometry": {"type": "Point", "coordinates": [-36.584918364811735, 15.020513246753975]}}, {"type": "Feature", "properties": {"norad_id": 66622, "name": "STARLINK-35950", "group": "last-30-days", "lat": 36.786979118375754, "lon": -170.6502183883637, "alt_km": 441.8252864640963, "timestamp": "2025-12-19T10:49:59.922465+00:00", "meta": {"OBJECT_NAME": "STARLINK-35950", "OBJECT_ID": "2025-271F", "EPOCH": "2025-12-19T00:00:02.000160", "MEAN_MOTION": 15.39597783, "ECCENTRICITY": 0.00011331, "INCLINATION": 53.1597, "RA_OF_ASC_NODE": 157.3799, "ARG_OF_PERICENTER": 80.625, "MEAN_ANOMALY": 344.75, "EPHEMERIS_TYPE": 0, "CLASSIFICATION_TYPE": "U", "NORAD_CAT_ID": 66622, "ELEMENT_SET_NO": 999, "REV_AT_EPOCH": 524, "BSTAR": 0.00091036518, "MEAN_MOTION_DOT": 0.0003616, "MEAN_MOTION_DDOT": 0}, "tle": {"line1": "1 66622U 25271F   25353.00002315  .00036160  00000+0  91037-3 0  9996", "line2": "2 66622  53.1597 157.3799 0001133  80.6250 344.7500 15.39597783  5245"}}, "geometry": {"type": "Point", "coordinates": [-170.6502183883637, 36.786979118375754]}}, {"type": "Feature", "properties": {"norad_id": 66623, "name": "STARLINK-35920", "group": "last-30-days", "lat": -2.4651563351219705, "lon": 153.50346790329425, "alt_km": 448.5583168088524, "timestamp": "2025-12-19T10:49:59.922476+00:00", "meta": {"OBJECT_NAME": "STARLINK-35920", "OBJECT_ID": "2025-271G", "EPOCH": "2025-12-19T00:00:02.000160", "MEAN_MOTION": 15.39597243, "ECCENTRICITY": 8.467e-05, "INCLINATION": 53.1599, "RA_OF_ASC_NODE": 157.4805, "ARG_OF_PERICENTER": 98.5783, "MEAN_ANOMALY": 275.3024, "EPHEMERIS_TYPE": 0, "CLASSIFICATION_TYPE": "U", "NORAD_CAT_ID": 66623, "ELEMENT_SET_NO": 999, "REV_AT_EPOCH": 524, "BSTAR": 0.00083796436, "MEAN_MOTION_DOT": 0.00033239, "MEAN_MOTION_DDOT": 0}, "tle": {"line1": "1 66623U 25271G   25353.00002315  .00033239  00000+0  83796-3 0  9994", "line2": "2 66623  53.1599 157.4805 0000846  98.5783 275.3024 15.39597243  5247"}}, "geometry": {"type": "Point", "coordinates": [153.50346790329425, -2.4651563351219705]}}, {"type": "Feature", "properties": {"norad_id": 66624, "name": "STARLINK-35927", "group": "last-30-days", "lat": 46.16207329973738, "lon": -76.2153076479485, "alt_km": 411.85407356092765, "timestamp": "2025-12-19T10:49:59.922486+00:00", "meta": {"OBJECT_NAME": "STARLINK-35927", "OBJECT_ID": "2025-271H", "EPOCH": "2025-12-19T00:00:02.000160", "MEAN_MOTION": 15.49279218, "ECCENTRICITY": 0.00011873, "INCLINATION": 53.1587, "RA_OF_ASC_NODE": 157.2777, "ARG_OF_PERICENTER": 81.6214, "MEAN_ANOMALY": 35.0594, "EPHEMERIS_TYPE": 0, "CLASSIFICATION_TYPE": "U", "NORAD_CAT_ID": 66624, "ELEMENT_SET_NO": 999, "REV_AT_EPOCH": 524, "BSTAR": 0.00088484238, "MEAN_MOTION_DOT": 0.00049021, "MEAN_MOTION_DDOT": 0}, "tle": {"line1": "1 66624U 25271H   25353.00002315  .00049021  00000+0  88484-3 0  9990", "line2": "2 66624  53.1587 157.2777 0001187  81.6214  35.0594 15.49279218  5245"}}, "geometry": {"type": "Point", "coordinates": [-76.2153076479485, 46.16207329973738]}}, {"type": "Feature", "properties": {"norad_id": 66625, "name": "STARLINK-35929", "group": "last-30-days", "lat": 52.41657864951995, "lon": -101.78849717967069, "alt_km": 432.42880900491855, "timestamp": "2025-12-19T10:49:59.922497+00:00", "meta": {"OBJECT_NAME": "STARLINK-35929", "OBJECT_ID": "2025-271J", "EPOCH": "2025-12-19T00:00:02.000160", "MEAN_MOTION": 15.43991768, "ECCENTRICITY": 0.00011326, "INCLINATION": 53.1592, "RA_OF_ASC_NODE": 157.2911, "ARG_OF_PERICENTER": 57.7984, "MEAN_ANOMALY": 51.4478, "EPHEMERIS_TYPE": 0, "CLASSIFICATION_TYPE": "U", "NORAD_CAT_ID": 66625, "ELEMENT_SET_NO": 999, "REV_AT_EPOCH": 524, "BSTAR": -0.048665079, "MEAN_MOTION_DOT": -0.02007706, "MEAN_MOTION_DDOT": 0}, "tle": {"line1": "1 66625U 25271J   25353.00002315 -.02007706  00000+0 -48665-1 0  9994", "line2": "2 66625  53.1592 157.2911 0001132  57.7984  51.4478 15.43991768  5248"}}, "geometry": {"type": "Point", "coordinates": [-101.78849717967069, 52.41657864951995]}}, {"type": "Feature", "properties": {"norad_id": 66626, "name": "STARLINK-35902", "group": "last-30-days", "lat": 17.96505552789164, "lon": 169.37150975377432, "alt_km": 444.86885944718415, "timestamp": "2025-12-19T10:49:59.922508+00:00", "meta": {"OBJECT_NAME": "STARLINK-35902", "OBJECT_ID": "2025-271K", "EPOCH": "2025-12-19T00:00:02.000160", "MEAN_MOTION": 15.39602993, "ECCENTRICITY": 0.00014663, "INCLINATION": 53.16, "RA_OF_ASC_NODE": 157.4298, "ARG_OF_PERICENTER": 73.237, "MEAN_ANOMALY": 326.384, "EPHEMERIS_TYPE": 0, "CLASSIFICATION_TYPE": "U", "NORAD_CAT_ID": 66626, "ELEMENT_SET_NO": 999, "REV_AT_EPOCH": 524, "BSTAR": 0.0007997499, "MEAN_MOTION_DOT": 0.00031705, "MEAN_MOTION_DDOT": 0}, "tle": {"line1": "1 66626U 25271K   25353.00002315  .00031705  00000+0  79975-3 0  9997", "line2": "2 66626  53.1600 157.4298 0001466  73.2370 326.3840 15.39602993  5242"}}, "geometry": {"type": "Point", "coordinates": [169.37150975377432, 17.96505552789164]}}, {"type": "Feature", "properties": {"norad_id": 66627, "name": "STARLINK-35904", "group": "last-30-days", "lat": 50.36053692558318, "lon": -139.97494854700093, "alt_km": 439.82080417956604, "timestamp": "2025-12-19T10:49:59.922518+00:00", "meta": {"OBJECT_NAME": "STARLINK-35904", "OBJECT_ID": "2025-271L", "EPOCH": "2025-12-19T00:00:02.000160", "MEAN_MOTION": 15.39586788, "ECCENTRICITY": 9.712e-05, "INCLINATION": 53.1589, "RA_OF_ASC_NODE": 157.3268, "ARG_OF_PERICENTER": 83.1938, "MEAN_ANOMALY": 7.9558, "EPHEMERIS_TYPE": 0, "CLASSIFICATION_TYPE": "U", "NORAD_CAT_ID": 66627, "ELEMENT_SET_NO": 999, "REV_AT_EPOCH": 508, "BSTAR": 0.00085532392, "MEAN_MOTION_DOT": 0.00033927, "MEAN_MOTION_DDOT": 0}, "tle": {"line1": "1 66627U 25271L   25353.00002315  .00033927  00000+0  85532-3 0  9992", "line2": "2 66627  53.1589 157.3268 0000971  83.1938   7.9558 15.39586788  5088"}}, "geometry": {"type": "Point", "coordinates": [-139.97494854700093, 50.36053692558318]}}, {"type": "Feature", "properties": {"norad_id": 66628, "name": "STARLINK-35862", "group": "last-30-days", "lat": 40.695713443524795, "lon": -65.05321914748372, "alt_km": 412.60378636112546, "timestamp": "2025-12-19T10:49:59.922530+00:00", "meta": {"OBJECT_NAME": "STARLINK-35862", "OBJECT_ID": "2025-271M", "EPOCH": "2025-12-18T21:54:35.856864", "MEAN_MOTION": 15.49385884, "ECCENTRICITY": 9.597e-05, "INCLINATION": 53.1591, "RA_OF_ASC_NODE": 157.6722, "ARG_OF_PERICENTER": 75.8715, "MEAN_ANOMALY": 284.24, "EPHEMERIS_TYPE": 0, "CLASSIFICATION_TYPE": "U", "NORAD_CAT_ID": 66628, "ELEMENT_SET_NO": 999, "REV_AT_EPOCH": 516, "BSTAR": 0.00078885762, "MEAN_MOTION_DOT": 0.0004379, "MEAN_MOTION_DDOT": 0}, "tle": {"line1": "1 66628U 25271M   25352.91291501  .00043790  00000+0  78886-3 0  9992", "line2": "2 66628  53.1591 157.6722 0000959  75.8715 284.2400 15.49385884  5167"}}, "geometry": {"type": "Point", "coordinates": [-65.05321914748372, 40.695713443524795]}}, {"type": "Feature", "properties": {"norad_id": 66629, "name": "STARLINK-35956", "group": "last-30-days", "lat": 39.08243475072592, "lon": -62.41956491800072, "alt_km": 412.9698256605907, "timestamp": "2025-12-19T10:49:59.922541+00:00", "meta": {"OBJECT_NAME": "STARLINK-35956", "OBJECT_ID": "2025-271N", "EPOCH": "2025-12-18T16:00:00.999936", "MEAN_MOTION": 15.49463337, "ECCENTRICITY": 5.424e-05, "INCLINATION": 53.1591, "RA_OF_ASC_NODE": 158.846, "ARG_OF_PERICENTER": 63.7637, "MEAN_ANOMALY": 4.4961, "EPHEMERIS_TYPE": 0, "CLASSIFICATION_TYPE": "U", "NORAD_CAT_ID": 66629, "ELEMENT_SET_NO": 999, "REV_AT_EPOCH": 519, "BSTAR": 0.0002238515, "MEAN_MOTION_DOT": 0.00012088, "MEAN_MOTION_DDOT": 0}, "tle": {"line1": "1 66629U 25271N   25352.66667824  .00012088  00000+0  22385-3 0  9999", "line2": "2 66629  53.1591 158.8460 0000542  63.7637   4.4961 15.49463337  5194"}}, "geometry": {"type": "Point", "coordinates": [-62.41956491800072, 39.08243475072592]}}]}